HORYU-2
1 38340U 12025D   14261.51380571  .00001940  00000-0  31153-3 0  9666
2 38340 098.2685 220.3508 0011243 235.4093 124.6040 14.72788396125533
RS-40
1 38735U 12041C   14260.63935088  .00000024  00000-0  10000-3 0  6772
2 38735 082.4723 229.8876 0018324 054.8764 305.4027 12.42561050 97067
PROITERES
1 38756U 12047B   14261.46620220  .00000884  00000-0  13893-3 0  2168
2 38756 098.2275 351.2852 0013730 088.2954 271.9827 14.75093832108939
BEESAT-3
1 39134U 13015E   14260.90560543  .00010610  00000-0  72250-3 0  7024
2 39134 064.8617 204.8945 0033720 290.7796 068.9705 15.06217995 77623
BEESAT-2
1 39136U 13015G   14261.20972414  .00008847  00000-0  61658-3 0  6853
2 39136 064.8646 204.7161 0033819 290.5460 069.2031 15.05485741 77655
LO-75
1 39382U 13064C   14261.36341318  .00205220  00000-0  22277-2 0  4046
2 39382 040.4876 247.3705 0022061 190.8491 169.1829 15.61717198 46526
ZACUBE-1
1 39417U 13066B   14261.44832952  .00001692  00000-0  23267-3 0  4054
2 39417 097.7634 328.8357 0061031 301.1692 058.3585 14.78347465 44473
TRITON-1
1 39427U 13066M   14260.22531902  .00001401  00000-0  24170-3 0  2556
2 39427 097.7539 321.6011 0117559 318.1525 041.0738 14.65588579 43877
DELFIN3XT
1 39428U 13066N   14260.75509760  .00002285  00000-0  39995-3 0  2600
2 39428 097.7515 321.0532 0126919 319.1844 039.9861 14.63618023 43878
GOMX-1
1 39430U 13066Q   14261.16110969  .00001370  00000-0  26793-3 0  8161
2 39430 097.7454 318.4842 0155250 326.1240 033.0118 14.57025259 43758
MO-76
1 39436U 13066W   14260.44715602  .00014023  00000-0  13807-2 0  3325
2 39436 097.7753 332.7191 0024355 304.5381 055.2703 14.91955224 44624
LO-74
1 39440U 13066AA  14260.64230915  .00001764  00000-0  26602-3 0  2562
2 39440 097.7615 325.6569 0083518 308.2282 051.1439 14.73276524 44195
PUCPSAT-1
1 39442U 13066AC  14261.14279286  .00003247  00000-0  37004-3 0  2559
2 39442 097.7716 332.2872 0033459 302.0994 057.6871 14.86448939 43433
SHINAISAT
1 39572U 14009A   14260.99470509  .00091158  00000-0  49005-3 0  2927
2 39572 065.0047 078.7608 0021168 275.3835 084.4985 15.79421921 31718
TEIKYOSAT
1 39576U 14009E   14261.59022591  .00175160  17661-4  61518-3 0  3062
2 39576 065.0026 072.7508 0021549 280.9991 078.8658 15.88659751 31886
CO-77
1 39577U 14009F   14244.78324653  .10543803  76292-5  32273-3 0  3795
2 39577 064.9920 123.7668 0014904 269.7208 091.1897 16.43552757 29380
SPROUT
1 39770U 14029E   14261.80563710  .00000925  00000-0  12092-3 0  1317
2 39770 097.8719 357.5323 0010536 016.7070 343.4495 14.82771638 17415
POPSAT-HIP1
1 40028U 14033U   14261.53133416  .00002693  00000-0  31928-3 0  2668
2 40028 097.9749 156.3481 0015215 357.5639 002.5464 14.85295028 13437
EO-80
1 40032U 14033Y   14261.27577464  .00002631  00000-0  31402-3 0  2578
2 40032 097.9715 156.0154 0012976 353.7990 006.3052 14.85064525 13406
VELOX-1
1 40057U 14034E   14261.52724824  .00002675  00000-0  41288-3 0  2502
2 40057 098.2449 330.0853 0012616 032.4874 327.7106 14.74172005 11830
DAURIA DX 1
1 40071U 14037C   14261.55118141  .00001251  00000-0  17451-3 0  2215
2 40071 098.3942 316.3910 0009886 037.9639 322.2262 14.79598054 10619
UKUBE-1
1 40074U 14037F   14261.50792782  .00002555  00000-0  34070-3 0  2238
2 40074 098.3951 316.4566 0006331 050.0102 310.1662 14.80551819 10613
CHASQUI-1
1 40117U 98067ET  14261.80048677  .00061987  00000-0  96327-3 0  1046
2 40117 051.6477 355.2921 0003036 093.3719 352.0525 15.53344370  4827
